STARLINK-36787          
1 68094U 26042AB  26069.75002314 -.01212191  47905-3 -21087-2 0  9993
2 68094  53.1596 189.7673 0000970  48.8393  45.3918 16.01577449  2219
STARLINK-36790          
1 68095U 26042AC  26069.75002314 -.01205635  47207-3 -21513-2 0  9998
2 68095  53.1600 189.7841 0000889  74.2870  11.9952 16.01139966  2210
STARLINK-36328          
1 68096U 26042AD  26069.75002314 -.01162574  44455-3 -20083-2 0  9996
2 68096  53.1599 189.7628 0001096  40.0369  56.2673 16.01688304  2213
STARLINK-36853          
1 68097U 26042AE  26069.75002314 -.01249808  50589-3 -21876-2 0  9999
2 68097  53.1598 189.7711 0000903  58.2520  34.1102 16.01478689  2228
GLOBAL-34               
1 68098U 26043A   26069.71373682  .00015097  00000+0  49218-3 0  9994
2 68098  42.0218  69.5878 0006740 295.8316  64.1826 15.31527863   721
ELECTRON R/B            
1 68099U 26043B   26069.35387802  .03474071  78117-5  13482-2 0  9991
2 68099  42.0131  69.3460 0149943 297.4494  61.1190 16.01670709   692
ELECTRON KICK STAGE R/B 
1 68100U 26043C   26069.04309506  .03379654  81975-5  19249-2 0  9999
2 68100  42.1191  71.4890 0138357  51.8651 309.4591 16.00095135   637
ECHOSTAR 25             
1 68126U 26045A   26069.34632498  .00001692  00000+0  28878-3 0  9995
2 68126  26.8942  71.1091 6208313 174.1557 199.6094  3.74435030    16
